[{"OBJECT_NAME":"STARLINK-11365 [DTC]","OBJECT_ID":"2025-024H","EPOCH":"2026-03-09T14:03:29.021184","MEAN_MOTION":15.70871886,"ECCENTRICITY":0.0001911,"INCLINATION":42.9993,"RA_OF_ASC_NODE":181.7792,"ARG_OF_PERICENTER":281.1969,"MEAN_ANOMALY":78.8684,"EPHEMERIS_TYPE":0,"CLASSIFICATION_TYPE":"U","NORAD_CAT_ID":62886,"ELEMENT_SET_NO":999,"REV_AT_EPOCH":6345,"BSTAR":0.00057319,"MEAN_MOTION_DOT":0.00073856,"MEAN_MOTION_DDOT":0},{"OBJECT_NAME":"DOVE 2","OBJECT_ID":"2013-015C","EPOCH":"2026-03-09T12:05:38.052096","MEAN_MOTION":15.68794519,"ECCENTRICITY":0.00170561,"INCLINATION":64.8558,"RA_OF_ASC_NODE":101.9902,"ARG_OF_PERICENTER":280.6272,"MEAN_ANOMALY":79.2958,"EPHEMERIS_TYPE":0,"CLASSIFICATION_TYPE":"U","NORAD_CAT_ID":39132,"ELEMENT_SET_NO":999,"REV_AT_EPOCH":71099,"BSTAR":0.00072172094,"MEAN_MOTION_DOT":0.00084334,"MEAN_MOTION_DDOT":0}]
